[{"OBJECT_NAME":"SDA_1676","OBJECT_ID":"2025-230N","EPOCH":"2026-03-09T23:10:57.103680","MEAN_MOTION":13.84599753,"ECCENTRICITY":0.00032308,"INCLINATION":81.3008,"RA_OF_ASC_NODE":303.8061,"ARG_OF_PERICENTER":59.6386,"MEAN_ANOMALY":300.509,"EPHEMERIS_TYPE":0,"CLASSIFICATION_TYPE":"U","NORAD_CAT_ID":65986,"ELEMENT_SET_NO":999,"REV_AT_EPOCH":2007,"BSTAR":0.00022843479,"MEAN_MOTION_DOT":2.68e-6,"MEAN_MOTION_DDOT":0},{"OBJECT_NAME":"FENGYUN 1C DEB","OBJECT_ID":"1999-025CWZ","EPOCH":"2026-03-07T21:38:32.112384","MEAN_MOTION":14.05986552,"ECCENTRICITY":0.0110186,"INCLINATION":97.767,"RA_OF_ASC_NODE":112.7689,"ARG_OF_PERICENTER":173.0954,"MEAN_ANOMALY":187.1766,"EPHEMERIS_TYPE":0,"CLASSIFICATION_TYPE":"U","NORAD_CAT_ID":32308,"ELEMENT_SET_NO":999,"REV_AT_EPOCH":66608,"BSTAR":0.0018074773,"MEAN_MOTION_DOT":3.095e-5,"MEAN_MOTION_DDOT":0}]
